$$SOE
2460721.500000000, A.D. 2025-Feb-15 00:00:00.0000, -2.562697199276850E+08, -1.375467002744921E+08, -7.099473434031776E+07,
2460728.500000000, A.D. 2025-Feb-22 00:00:00.0000, -2.504530661987953E+08, -1.481026756983539E+08, -7.377524455715159E+07,
2460735.500000000, A.D. 2025-Mar-01 00:00:00.0000, -2.441869158608294E+08, -1.583929298468344E+08, -7.642335843422461E+07,
2460742.500000000, A.D. 2025-Mar-08 00:00:00.0000, -2.374857890807042E+08, -1.684011194956212E+08, -7.893534883902109E+07,
2460749.500000000, A.D. 2025-Mar-15 00:00:00.0000, -2.303646344495757E+08, -1.781115530664261E+08, -8.130774340057564E+07,
2460756.500000000, A.D. 2025-Mar-22 00:00:00.0000, -2.228388029616757E+08, -1.875091854414849E+08, -8.353731977011254E+07,
2460763.500000000, A.D. 2025-Mar-29 00:00:00.0000, -2.149240225845968E+08, -1.965796145402401E+08, -8.562110123952490E+07,
2460770.500000000, A.D. 2025-Apr-05 00:00:00.0000, -2.066363730150603E+08, -2.053090766805108E+08, -8.755635253855471E+07,
2460777.500000000, A.D. 2025-Apr-12 00:00:00.0000, -1.979922624591972E+08, -2.136844407612481E+08, -8.934057566506375E+07,
2460784.500000000, A.D. 2025-Apr-19 00:00:00.0000, -1.890084065311711E+08, -2.216932022726200E+08, -9.097150583373941E+07,
2460791.500000000, A.D. 2025-Apr-26 00:00:00.0000, -1.797018088985257E+08, -2.293234774488117E+08, -9.244710760698879E+07,
2460798.500000000, A.D. 2025-May-03 00:00:00.0000, -1.700897434554670E+08, -2.365639976493190E+08, -9.376557123392186E+07,
2460805.500000000, A.D. 2025-May-10 00:00:00.0000, -1.601897378874639E+08, -2.434041040602494E+08, -9.492530921491808E+07,
2460812.500000000, A.D. 2025-May-17 00:00:00.0000, -1.500195584830189E+08, -2.498337428527494E+08, -9.592495311621454E+07,
2460819.500000000, A.D. 2025-May-24 00:00:00.0000, -1.395971959159609E+08, -2.558434609423163E+08, -9.676335067490058E+07,
2460826.500000000, A.D. 2025-May-31 00:00:00.0000, -1.289408514821826E+08, -2.614244021166653E+08, -9.743956322519246E+07,
2460833.500000000, A.D. 2025-Jun-07 00:00:00.0000, -1.180689240933926E+08, -2.665683023944490E+08, -9.795286332306989E+07,
2460840.500000000, A.D. 2025-Jun-14 00:00:00.0000, -1.070000002899347E+08, -2.712674853393714E+08, -9.830273241403657E+07,
2460847.500000000, A.D. 2025-Jun-21 00:00:00.0000, -9.575284595010878E+07, -2.755148606547653E+08, -9.848885892938131E+07,
2460854.500000000, A.D. 2025-Jun-28 00:00:00.0000, -8.434639646439563E+07, -2.793039243462522E+08, -9.851113696204786E+07,
2460861.500000000, A.D. 2025-Jul-05 00:00:00.0000, -7.279974679110235E+07, -2.826287583421105E+08, -9.836966521379867E+07,
2460868.500000000, A.D. 2025-Jul-12 00:00:00.0000, -6.113214248458066E+07, -2.854840304150304E+08, -9.806474617369090E+07,
2460875.500000000, A.D. 2025-Jul-19 00:00:00.0000, -4.936297140623836E+07, -2.878649950125359E+08, -9.759688559226677E+07,
2460882.500000000, A.D. 2025-Jul-26 00:00:00.0000, -3.751175580670755E+07, -2.897674950789944E+08, -9.696679227188940E+07,
2460889.500000000, A.D. 2025-Aug-02 00:00:00.0000, -2.559814460856567E+07, -2.911879648694860E+08, -9.617537817196251E+07,
2460896.500000000, A.D. 2025-Aug-09 00:00:00.0000, -1.364190575824842E+07, -2.921234337905267E+08, -9.522375882739863E+07,
2460903.500000000, A.D. 2025-Aug-16 00:00:00.0000, -1.662918462620731E+06, -2.925715313497806E+08, -9.411325408801319E+07,
2460910.500000000, A.D. 2025-Aug-23 00:00:00.0000, 1.031883508956056E+07, -2.925304932128693E+08, -9.284538919778967E+07,
2460917.500000000, A.D. 2025-Aug-30 00:00:00.0000, 2.228327895913461E+07, -2.919991676621267E+08, -9.142189617639410E+07,
2460924.500000000, A.D. 2025-Sep-06 00:00:00.0000, 3.421025233439549E+07, -2.909770214595485E+08, -8.984471527889751E+07,
2460931.500000000, A.D. 2025-Sep-13 00:00:00.0000, 4.607951649984515E+07, -2.894641475914742E+08, -8.811599656830312E+07,
2460938.500000000, A.D. 2025-Sep-20 00:00:00.0000, 5.787076328950951E+07, -2.874612765296429E+08, -8.623810201967359E+07,
2460945.500000000, A.D. 2025-Sep-27 00:00:00.0000, 6.956362620652393E+07, -2.849697878860787E+08, -8.421360798303632E+07,
2460952.500000000, A.D. 2025-Oct-04 00:00:00.0000, 8.113769231679319E+07, -2.819917219055459E+08, -8.204530775781618E+07,
2460959.500000000, A.D. 2025-Oct-11 00:00:00.0000, 9.257251467072278E+07, -2.785297917127669E+08, -7.973621429991306E+07,
2460966.500000000, A.D. 2025-Oct-18 00:00:00.0000, 1.038476256679904E+08, -2.745873965549625E+08, -7.728956308525668E+07,
2460973.500000000, A.D. 2025-Oct-25 00:00:00.0000, 1.149425516387949E+08, -2.701686359862843E+08, -7.470881511382109E+07,
2460980.500000000, A.D. 2025-Nov-01 00:00:00.0000, 1.258368288168593E+08, -2.652783249248694E+08, -7.199766002414389E+07,
2460987.500000000, A.D. 2025-Nov-08 00:00:00.0000, 1.365100208787108E+08, -2.599220095463623E+08, -6.916001928750491E+07,
2460994.500000000, A.D. 2025-Nov-15 00:00:00.0000, 1.469417383439404E+08, -2.541059839941855E+08, -6.620004946140891E+07,
2461001.500000000, A.D. 2025-Nov-22 00:00:00.0000, 1.571116603894735E+08, -2.478373076015838E+08, -6.312214548060922E+07,
2461008.500000000, A.D. 2025-Nov-29 00:00:00.0000, 1.669995590730326E+08, -2.411238213945340E+08, -5.993094383279113E+07,
2461015.500000000, A.D. 2025-Dec-06 00:00:00.0000, 1.765853238338872E+08, -2.339741638962466E+08, -5.663132536757228E+07,
2461022.500000000, A.D. 2025-Dec-13 00:00:00.0000, 1.858489868493265E+08, -2.263977894646817E+08, -5.322841799370731E+07,
2461029.500000000, A.D. 2025-Dec-20 00:00:00.0000, 1.947707528874645E+08, -2.184049879824634E+08, -4.972759943673120E+07,
2461036.500000000, A.D. 2025-Dec-27 00:00:00.0000, 2.033310327298957E+08, -2.100069031361651E+08, -4.613449967812188E+07,
2461043.500000000, A.D. 2026-Jan-03 00:00:00.0000, 2.115104788469296E+08, -2.012155497093763E+08, -4.245500291755285E+07,
2461050.500000000, A.D. 2026-Jan-10 00:00:00.0000, 2.192900235704533E+08, -1.920438303546439E+08, -3.869524904210483E+07,
2461057.500000000, A.D. 2026-Jan-17 00:00:00.0000, 2.266509201239264E+08, -1.825055517003630E+08, -3.486163454272191E+07,
2461064.500000000, A.D. 2026-Jan-24 00:00:00.0000, 2.335747867006046E+08, -1.726154395140293E+08, -3.096081278683969E+07,
2461071.500000000, A.D. 2026-Jan-31 00:00:00.0000, 2.400436537021049E+08, -1.623891526508052E+08, -2.699969354413874E+07,
2461078.500000000, A.D. 2026-Feb-07 00:00:00.0000, 2.460400142509237E+08, -1.518432955328507E+08, -2.298544166046235E+07,
2461085.500000000, A.D. 2026-Feb-14 00:00:00.0000, 2.515468782495510E+08, -1.409954288136780E+08, -1.892547478432985E+07,
2461092.500000000, A.D. 2026-Feb-21 00:00:00.0000, 2.565478303882950E+08, -1.298640772483290E+08, -1.482746001659665E+07,
2461099.500000000, A.D. 2026-Feb-28 00:00:00.0000, 2.610270910328373E+08, -1.184687332083500E+08, -1.069930917321224E+07,
2461106.500000000, A.D. 2026-Mar-07 00:00:00.0000, 2.649695779121881E+08, -1.068298573875464E+08, -6.549172509209700E+06,
2461113.500000000, A.D. 2026-Mar-14 00:00:00.0000, 2.683609712971189E+08, -9.496887860724115E+07, -2.385431217628710E+06,
2461120.500000000, A.D. 2026-Mar-21 00:00:00.0000, 2.711877843064563E+08, -8.290818937026235E+07, 1.783311506678224E+06,
2461127.500000000, A.D. 2026-Mar-28 00:00:00.0000, 2.734374361305339E+08, -7.067113566036998E+07, 5.948241243820030E+06,
2461134.500000000, A.D. 2026-Apr-04 00:00:00.0000, 2.750983273057469E+08, -5.828200146237332E+07, 1.010034507669392E+07,
2461141.500000000, A.D. 2026-Apr-11 00:00:00.0000, 2.761599169859570E+08, -4.576598786453761E+07, 1.423042634365662E+07,
2461148.500000000, A.D. 2026-Apr-18 00:00:00.0000, 2.766128019709323E+08, -3.314918625263340E+07, 1.832912152068513E+07,
2461155.500000000, A.D. 2026-Apr-25 00:00:00.0000, 2.764487970626667E+08, -2.045854509280157E+07, 2.238691933768955E+07,
2461162.500000000, A.D. 2026-May-02 00:00:00.0000, 2.756610162268458E+08, -7.721829862582602E+06, 2.639418221544637E+07,
2461169.500000000, A.D. 2026-May-09 00:00:00.0000, 2.742439540508378E+08, 5.032424244151991E+06, 3.034117007850055E+07,
2461176.500000000, A.D. 2026-May-16 00:00:00.0000, 2.721935671555811E+08, 1.777496737432586E+07, 3.421806656844966E+07,
2461183.500000000, A.D. 2026-May-23 00:00:00.0000, 2.695073548026542E+08, 3.047589921066821E+07, 3.801500775691430E+07,
2461190.500000000, A.D. 2026-May-30 00:00:00.0000, 2.661844357483208E+08, 4.310474291964939E+07, 4.172211357461804E+07,
2461197.500000000, A.D. 2026-Jun-06 00:00:00.0000, 2.622256200957295E+08, 5.563052577256095E+07, 4.532952168964241E+07,
2461204.500000000, A.D. 2026-Jun-13 00:00:00.0000, 2.576334787847857E+08, 6.802186672912712E+07, 4.882742344099881E+07,
2461211.500000000, A.D. 2026-Jun-20 00:00:00.0000, 2.524124091264058E+08, 8.024707390076905E+07, 5.220610199524958E+07,
2461218.500000000, A.D. 2026-Jun-27 00:00:00.0000, 2.465686935541380E+08, 9.227425142112967E+07, 5.545597269391714E+07,
2461225.500000000, A.D. 2026-Jul-04 00:00:00.0000, 2.401105504373401E+08, 1.040714146762192E+08, 5.856762532035585E+07,
2461232.500000000, A.D. 2026-Jul-11 00:00:00.0000, 2.330481760433080E+08, 1.156066133396998E+08, 6.153186799407682E+07,
2461239.500000000, A.D. 2026-Jul-18 00:00:00.0000, 2.253937765861985E+08, 1.268480616582804E+08, 6.433977237811399E+07,
2461246.500000000, A.D. 2026-Jul-25 00:00:00.0000, 2.171615892689154E+08, 1.377642752450372E+08, 6.698271984034995E+07,
2461253.500000000, A.D. 2026-Aug-01 00:00:00.0000, 2.083678913112958E+08, 1.483242134215250E+08, 6.945244815684821E+07,
2461260.500000000, A.D. 2026-Aug-08 00:00:00.0000, 1.990309962181704E+08, 1.584974259983285E+08, 7.174109828921744E+07,
2461267.500000000, A.D. 2026-Aug-15 00:00:00.0000, 1.891712368668343E+08, 1.682542037087113E+08, 7.384126075233033E+07,
2461274.500000000, A.D. 2026-Aug-22 00:00:00.0000, 1.788109339588225E+08, 1.775657321197449E+08, 7.574602121828438E+07,
2461281.500000000, A.D. 2026-Aug-29 00:00:00.0000, 1.679743470078849E+08, 1.864042461316805E+08, 7.744900490432326E+07,
2461288.500000000, A.D. 2026-Sep-05 00:00:00.0000, 1.566876096889860E+08, 1.947431805949960E+08, 7.894441877353281E+07,
$$EOE